[{"OBJECT_NAME":"JILIN-1 GAOFEN 03D49","OBJECT_ID":"2022-167N","EPOCH":"2026-03-09T23:57:17.118720","MEAN_MOTION":15.3490547,"ECCENTRICITY":0.00068038,"INCLINATION":97.6714,"RA_OF_ASC_NODE":234.8733,"ARG_OF_PERICENTER":127.8933,"MEAN_ANOMALY":232.2925,"EPHEMERIS_TYPE":0,"CLASSIFICATION_TYPE":"U","NORAD_CAT_ID":54694,"ELEMENT_SET_NO":999,"REV_AT_EPOCH":18026,"BSTAR":0.00051753854,"MEAN_MOTION_DOT":0.00017467,"MEAN_MOTION_DDOT":0},{"OBJECT_NAME":"STARLINK-30052","OBJECT_ID":"2023-119K","EPOCH":"2026-03-09T22:00:01.999584","MEAN_MOTION":15.18817261,"ECCENTRICITY":0.0001361,"INCLINATION":42.9994,"RA_OF_ASC_NODE":79.4905,"ARG_OF_PERICENTER":256.0949,"MEAN_ANOMALY":348.0898,"EPHEMERIS_TYPE":0,"CLASSIFICATION_TYPE":"U","NORAD_CAT_ID":57611,"ELEMENT_SET_NO":999,"REV_AT_EPOCH":572,"BSTAR":0.053443655,"MEAN_MOTION_DOT":0.01240173,"MEAN_MOTION_DDOT":0}]
